STARLINK-30822          
1 58193U 23167U   26160.24176586 -.00002583  00000+0 -84384-4 0  9999
2 58193  43.0059 346.6247 0002689 253.5647 106.4910 15.27558990144986
STARLINK-30830          
1 58194U 23167V   26159.80316940 -.00002266  00000+0 -72868-4 0  9992
2 58194  43.0030 348.4792 0001218 279.5759  80.4955 15.27574985144926
STARLINK-30827          
1 58195U 23167W   26160.19164766  .00008295  00000+0  31096-3 0  9997
2 58195  42.9992 346.2618 0000185  55.9467 304.1402 15.27543158144986
STARLINK-30798          
1 58196U 23167X   26160.23532380 -.00000880  00000+0 -22461-4 0  9995
2 58196  43.0031 346.5828 0001613 260.7728  99.2941 15.27569757144985
STARLINK-30762          
1 58197U 23167Y   26160.24558028 -.00000060  00000+0  73588-5 0  9990
2 58197  43.0049 346.6584 0002143 293.2998  66.7628 15.27592195144987
TIANHUI 5A              
1 58199U 23168A   26159.33216874  .00000431  00000+0  53385-4 0  9994
2 58199  97.8208 166.8310 0001559  89.4144 270.7251 14.87583680141283
TIANHUI 5B              
1 58201U 23168C   26159.46669917  .00000409  00000+0  50947-4 0  9998
2 58201  97.8209 166.9679 0002159  94.2966 265.8497 14.87583604141306
TJS-10                  
1 58204U 23169A   26159.78001833 -.00000232  00000+0  00000+0 0  9999
2 58204   2.5218  80.5904 0003988  99.7137  90.0580  1.00267539  9452
STARLINK-30800          
1 58206U 23170A   26159.37127552  .00001413  00000+0  60844-4 0  9993
2 58206  43.0049  42.4758 0001279 266.7651  93.3055 15.27582726144161
STARLINK-30845          
1 58207U 23170B   26158.99606292  .00018244  00000+0  12229-2 0  9996
2 58207  42.9989  63.5473 0001854 239.2494 120.8168 15.06573729143889
STARLINK-30841          
1 58208U 23170C   26159.36101026 -.00002368  00000+0 -76596-4 0  9995
2 58208  43.0007  42.3901 0002119 263.6534  96.4077 15.27560294144160
STARLINK-30839          
1 58209U 23170D   26159.38398989  .00004000  00000+0  15487-3 0  9998
2 58209  43.0048  41.7203 0001124 259.2012 100.8713 15.27568459144170
STARLINK-30846          
1 58210U 23170E   26159.96746051 -.00003037  00000+0 -10083-3 0  9999
2 58210  43.0012  39.2156 0001137 259.2594 100.8129 15.27599014144252
STARLINK-30838          
1 58211U 23170F   26159.39422716  .00002402  00000+0  96732-4 0  9995
2 58211  43.0062  41.7961 0004796 259.7378 100.2933 15.27601560144177
STARLINK-30837          
1 58212U 23170G   26159.37513943 -.00002445  00000+0 -79355-4 0  9998
2 58212  43.0073  42.4870 0001282 305.1310  54.9421 15.27570464144160
STARLINK-30813          
1 58213U 23170H   26159.39811053  .00000818  00000+0  39267-4 0  9992
2 58213  43.0140  41.8133 0002567 219.7226 140.3438 15.27584942144179
STARLINK-30805          
1 58214U 23170J   26159.38655014  .00001112  00000+0  49948-4 0  9990
2 58214  43.0090  41.7379 0001062 261.5557  98.5174 15.27577140144179
STARLINK-30851          
1 58215U 23170K   26159.78273153  .00000171  00000+0  15714-4 0  9993
2 58215  43.0043  39.5516 0000330 279.2608  80.8207 15.27572117144233
STARLINK-30818          
1 58217U 23170M   26159.39682950  .00000681  00000+0  34276-4 0  9991
2 58217  43.0054  41.8158 0001504 271.6801  88.3878 15.27580978144174
STARLINK-30794          
1 58218U 23170N   26159.38783816  .00000673  00000+0  33969-4 0  9993
2 58218  43.0061  41.7326 0000313 294.7315  65.3504 15.27581502144177
STARLINK-30835          
1 58219U 23170P   26159.80071692  .00017466  00000+0  64285-3 0  9995
2 58219  43.0032  39.6816 0002389 263.7512  96.3067 15.27571703144233
STARLINK-30792          
1 58220U 23170Q   26160.02563614  .00018520  00000+0  12043-2 0  9999
2 58220  42.9980  56.6523 0006693 203.9712 156.0822 15.07674588144055
STARLINK-30836          
1 58221U 23170R   26158.95711277 -.00001592  00000+0 -48367-4 0  9992
2 58221  43.0005  44.5301 0001763 268.6800  91.3849 15.27561202144101
STARLINK-30855          
1 58222U 23170S   26159.36483031  .00003216  00000+0  12628-3 0  9996
2 58222  43.0045  42.4092 0001574 259.7115 100.3559 15.27598758144161
STARLINK-30840          
1 58223U 23170T   26160.15335519  .00005727  00000+0  21764-3 0  9993
2 58223  43.0036  38.0085 0000996 246.8063 113.2684 15.27556730144280
STARLINK-30875          
1 58224U 23170U   26159.39297197  .00005393  00000+0  20534-3 0  9990
2 58224  43.0065  41.7654 0001540 246.3760 113.6930 15.27583469144176
STARLINK-30872          
1 58225U 23170V   26159.54657561 -.00000648  00000+0 -14026-4 0  9993
2 58225  43.0048 259.2031 0001539 270.9401  89.1274 15.27569284145860
STARLINK-30865          
1 58226U 23170W   26158.93790118 -.00001331  00000+0 -38882-4 0  9998
2 58226  43.0107  33.3383 0000345 256.5603 103.5211 15.27569210144237
STARLINK-30874          
1 58227U 23170X   26160.13791950  .00002394  00000+0  96473-4 0  9997
2 58227  43.0022  37.9024 0001420 264.7213  95.3476 15.27582976144289
STARLINK-30871          
1 58228U 23170Y   26158.96482266 -.00001086  00000+0 -29925-4 0  9990
2 58228  43.0032  44.5717 0002136 280.5396  79.5215 15.27567020144106
