OBJECT_NAME,OBJECT_ID,EPOCH,MEAN_MOTION,ECCENTRICITY,INCLINATION,RA_OF_ASC_NODE,ARG_OF_PERICENTER,MEAN_ANOMALY,EPHEMERIS_TYPE,CLASSIFICATION_TYPE,NORAD_CAT_ID,ELEMENT_SET_NO,REV_AT_EPOCH,BSTAR,MEAN_MOTION_DOT,MEAN_MOTION_DDOT
STARLINK-30822,2023-167U,2026-06-09T05:48:08.570304,15.27558990,.00026892,43.0059,346.6247,253.5647,106.4910,0,U,58193,999,14498,-.84384139E-4,-.2583E-4,0
STARLINK-30830,2023-167V,2026-06-08T19:16:33.836160,15.27574985,.00012184,43.0030,348.4792,279.5759,80.4955,0,U,58194,999,14492,-.72867817E-4,-.2266E-4,0
STARLINK-30827,2023-167W,2026-06-09T04:35:58.357824,15.27543158,.00001853,42.9992,346.2618,55.9467,304.1402,0,U,58195,999,14498,.31095836E-3,.8295E-4,0
STARLINK-30798,2023-167X,2026-06-09T05:38:51.976320,15.27569757,.00016133,43.0031,346.5828,260.7728,99.2941,0,U,58196,999,14498,-.2246106E-4,-.88E-5,0
STARLINK-30762,2023-167Y,2026-06-09T05:53:38.136192,15.27592195,.00021436,43.0049,346.6584,293.2998,66.7628,0,U,58197,999,14498,.735885E-5,-.6E-6,0
TIANHUI 5A,2023-168A,2026-06-08T07:58:19.379136,14.87583680,.00015591,97.8208,166.8310,89.4144,270.7251,0,U,58199,999,14128,.53384726E-4,.431E-5,0
TIANHUI 5B,2023-168C,2026-06-08T11:12:02.808288,14.87583604,.00021598,97.8209,166.9679,94.2966,265.8497,0,U,58201,999,14130,.50947354E-4,.409E-5,0
TJS-10,2023-169A,2026-06-08T18:43:13.583712,1.00267539,.0003988,2.5218,80.5904,99.7137,90.0580,0,U,58204,999,945,0,-.232E-5,0
STARLINK-30800,2023-170A,2026-06-08T08:54:38.204928,15.27582726,.00012799,43.0049,42.4758,266.7651,93.3055,0,U,58206,999,14416,.60844433E-4,.1413E-4,0
STARLINK-30845,2023-170B,2026-06-07T23:54:19.836288,15.06573729,.00018549,42.9989,63.5473,239.2494,120.8168,0,U,58207,999,14388,.12228857E-2,.18244E-3,0
STARLINK-30841,2023-170C,2026-06-08T08:39:51.286464,15.27560294,.0002119,43.0007,42.3901,263.6534,96.4077,0,U,58208,999,14416,-.76595518E-4,-.2368E-4,0
STARLINK-30839,2023-170D,2026-06-08T09:12:56.726496,15.27568459,.00011246,43.0048,41.7203,259.2012,100.8713,0,U,58209,999,14417,.15487002E-3,.4E-4,0
STARLINK-30846,2023-170E,2026-06-08T23:13:08.588064,15.27599014,.00011377,43.0012,39.2156,259.2594,100.8129,0,U,58210,999,14425,-.10082687E-3,-.3037E-4,0
STARLINK-30838,2023-170F,2026-06-08T09:27:41.226624,15.27601560,.00047965,43.0062,41.7961,259.7378,100.2933,0,U,58211,999,14417,.96732203E-4,.2402E-4,0
STARLINK-30837,2023-170G,2026-06-08T09:00:12.046752,15.27570464,.00012827,43.0073,42.4870,305.1310,54.9421,0,U,58212,999,14416,-.79355475E-4,-.2445E-4,0
STARLINK-30813,2023-170H,2026-06-08T09:33:16.749792,15.27584942,.00025677,43.0140,41.8133,219.7226,140.3438,0,U,58213,999,14417,.39267422E-4,.818E-5,0
STARLINK-30805,2023-170J,2026-06-08T09:16:37.932096,15.27577140,.00010622,43.0090,41.7379,261.5557,98.5174,0,U,58214,999,14417,.49948344E-4,.1112E-4,0
STARLINK-30851,2023-170K,2026-06-08T18:47:08.004192,15.27572117,.00003308,43.0043,39.5516,279.2608,80.8207,0,U,58215,999,14423,.15713917E-4,.171E-5,0
STARLINK-30818,2023-170M,2026-06-08T09:31:26.068800,15.27580978,.00015048,43.0054,41.8158,271.6801,88.3878,0,U,58217,999,14417,.34276155E-4,.681E-5,0
STARLINK-30794,2023-170N,2026-06-08T09:18:29.217024,15.27581502,.00003131,43.0061,41.7326,294.7315,65.3504,0,U,58218,999,14417,.33969198E-4,.673E-5,0
STARLINK-30835,2023-170P,2026-06-08T19:13:01.941888,15.27571703,.00023897,43.0032,39.6816,263.7512,96.3067,0,U,58219,999,14423,.6428541E-3,.17466E-3,0
STARLINK-30792,2023-170Q,2026-06-09T00:36:54.962496,15.07674588,.00066939,42.9980,56.6523,203.9712,156.0822,0,U,58220,999,14405,.12042878E-2,.1852E-3,0
STARLINK-30836,2023-170R,2026-06-07T22:58:14.543328,15.27561202,.00017632,43.0005,44.5301,268.6800,91.3849,0,U,58221,999,14410,-.48367319E-4,-.1592E-4,0
STARLINK-30855,2023-170S,2026-06-08T08:45:21.338784,15.27598758,.00015742,43.0045,42.4092,259.7115,100.3559,0,U,58222,999,14416,.12628014E-3,.3216E-4,0
STARLINK-30840,2023-170T,2026-06-09T03:40:49.888416,15.27556730,.00009966,43.0036,38.0085,246.8063,113.2684,0,U,58223,999,14428,.21763988E-3,.5727E-4,0
STARLINK-30875,2023-170U,2026-06-08T09:25:52.778208,15.27583469,.00015406,43.0065,41.7654,246.3760,113.6930,0,U,58224,999,14417,.20534031E-3,.5393E-4,0
STARLINK-30872,2023-170V,2026-06-08T13:07:04.132704,15.27569284,.00015396,43.0048,259.2031,270.9401,89.1274,0,U,58225,999,14586,-.14025975E-4,-.648E-5,0
STARLINK-30865,2023-170W,2026-06-07T22:30:34.661952,15.27569210,.00003456,43.0107,33.3383,256.5603,103.5211,0,U,58226,999,14423,-.38882387E-4,-.1331E-4,0
STARLINK-30874,2023-170X,2026-06-09T03:18:36.244800,15.27582976,.00014201,43.0022,37.9024,264.7213,95.3476,0,U,58227,999,14428,.96473174E-4,.2394E-4,0
STARLINK-30871,2023-170Y,2026-06-07T23:09:20.677824,15.27567020,.00021362,43.0032,44.5717,280.5396,79.5215,0,U,58228,999,14410,-.29924641E-4,-.1086E-4,0
